NORAD_CAT_ID,OBJECT_NAME,OBJECT_TYPE,EPOCH,MEAN_MOTION,ECCENTRICITY,INCLINATION,RA_OF_ASC_NODE,ARG_OF_PERICENTER,MEAN_ANOMALY,BSTAR,MEAN_MOTION_DOT,MEAN_MOTION_DDOT,TLE_LINE0,TLE_LINE1,TLE_LINE2,SEMIMAJOR_AXIS,PERIOD,APOGEE,PERIGEE,DECAYED
53627.0,STARLINK-4595,PAYLOAD,2023-11-25 13:34:45,15.08876206,0.0001796,53.2186,22.8585,94.602,265.5177,0.0016089,0.00025436,0.0,0 STARLINK-4595,1 53627U 22104AR  23329.56580683  .00025436  00000-0  16089-2 0  9998,2 53627  53.2186  22.8585 0001796  94.6020 265.5177 15.08876206 69689,6917.77,95.435,540.877,538.392,0.0
53627.0,STARLINK-4595,PAYLOAD,2023-11-26 03:53:13,15.0888595,0.0001589,53.2192,20.1847,82.688,277.4292,0.0015869,0.0002509,0.0,0 STARLINK-4595,1 53627U 22104AR  23330.16196022  .00025090  00000-0  15869-2 0  9997,2 53627  53.2192  20.1847 0001589  82.6880 277.4292 15.08885950 69089,6917.74,95.435,540.704,538.506,0.0
53627.0,STARLINK-4595,PAYLOAD,2023-11-26 10:14:45,15.08872719,0.000183,53.2186,18.9947,93.3032,266.8169,0.00075784,0.00011804,0.0,0 STARLINK-4595,1 53627U 22104AR  23330.42691729  .00011804  00000-0  75784-3 0  9991,2 53627  53.2186  18.9947 0001830  93.3032 266.8169 15.08872719 69124,6917.78,95.435,540.911,538.379,0.0
53627.0,STARLINK-4595,PAYLOAD,2023-11-27 03:44:01,15.08822604,0.0002125,53.2186,15.7213,99.1736,260.9497,0.00012529,1.705e-05,0.0,0 STARLINK-4595,1 53627U 22104AR  23331.15557140  .00001705  00000-0  12529-3 0  9997,2 53627  53.2186  15.7213 0002125  99.1736 260.9497 15.08822604 69237,6917.934,95.439,541.269,538.329,0.0
53627.0,STARLINK-4595,PAYLOAD,2023-11-27 10:05:34,15.08823094,0.0002118,53.2183,14.532,96.8782,263.2451,0.00048361,7.413e-05,0.0,0 STARLINK-4595,1 53627U 22104AR  23331.42053603  .00007413  00000-0  48361-3 0  9997,2 53627  53.2183  14.5320 0002118  96.8782 263.2451 15.08823094 69967,6917.932,95.439,541.262,538.332,0.0
53627.0,STARLINK-4595,PAYLOAD,2023-11-28 08:20:58,15.08854282,0.0002065,53.2181,10.372,90.2347,269.8881,0.00096873,0.00015169,0.0,0 STARLINK-4595,1 53627U 22104AR  23332.34789622  .00015169  00000-0  96873-3 0  9994,2 53627  53.2181  10.3720 0002065  90.2347 269.8881 15.08854282 69411,6917.837,95.437,541.13,538.273,0.0
53627.0,STARLINK-4595,PAYLOAD,2023-11-29 11:22:31,15.08856787,0.0001918,53.217,5.3168,87.2343,272.8869,0.0007471,0.00011628,0.0,0 STARLINK-4595,1 53627U 22104AR  23333.47397424  .00011628  00000-0  74710-3 0  9996,2 53627  53.2170   5.3168 0001918  87.2343 272.8869 15.08856787 69587,6917.829,95.436,541.021,538.367,0.0
53627.0,STARLINK-4595,PAYLOAD,2023-11-30 01:40:59,15.08835751,0.0001784,53.2171,2.6394,97.6211,262.4984,0.00042312,6.452e-05,0.0,0 STARLINK-4595,1 53627U 22104AR  23334.07013676  .00006452  00000-0  42312-3 0  9999,2 53627  53.2171   2.6394 0001784  97.6211 262.4984 15.08835751 69670,6917.893,95.438,540.993,538.524,0.0
53627.0,STARLINK-4595,PAYLOAD,2023-12-01 01:31:47,15.08840914,0.0002125,53.2168,358.1817,84.8124,275.3111,0.0007253,0.00011274,0.0,0 STARLINK-4595,1 53627U 22104AR  23335.06374181  .00011274  00000-0  72530-3 0  9993,2 53627  53.2168 358.1817 0002125  84.8124 275.3111 15.08840914 69825,6917.878,95.437,541.213,538.273,0.0
53627.0,STARLINK-4595,PAYLOAD,2023-12-01 07:53:19,15.08838399,0.0002006,53.2171,356.989,97.703,262.419,0.00055262,8.517e-05,0.0,0 STARLINK-4595,1 53627U 22104AR  23335.32870254  .00008517  00000-0  55262-3 0  9993,2 53627  53.2171 356.9890 0002006  97.7030 262.4190 15.08838399 69865,6917.885,95.438,541.138,538.363,0.0
53627.0,STARLINK-4595,PAYLOAD,2023-12-02 01:22:33,15.08860401,0.0001966,53.217,353.7165,103.4873,256.6338,0.00072982,0.00011353,0.0,0 STARLINK-4595,1 53627U 22104AR  23336.05733531  .00011353  00000-0  72982-3 0  9990,2 53627  53.2170 353.7165 0001966 103.4873 256.6338 15.08860401 69978,6917.818,95.436,541.043,538.323,0.0
53627.0,STARLINK-4595,PAYLOAD,2023-12-02 07:44:05,15.08902014,0.0002119,53.2178,352.5298,92.6252,267.4983,0.002252,0.00035796,0.0,0 STARLINK-4595,1 53627U 22104AR  23336.32228659  .00035796  00000-0  22520-2 0  9999,2 53627  53.2178 352.5298 0002119  92.6252 267.4983 15.08902014 70011,6917.691,95.434,541.022,538.09,0.0
53627.0,STARLINK-4595,PAYLOAD,2023-12-03 10:45:41,15.08789405,0.0001866,53.2173,347.475,66.6953,293.4235,0.0006463,9.999e-05,0.0,0 STARLINK-4595,1 53627U 22104AR  23337.44839793  .00009999  00000-0  64630-3 0  9995,2 53627  53.2173 347.4750 0001866  66.6953 293.4235 15.08789405 70183,6918.035,95.441,541.191,538.609,0.0
53627.0,STARLINK-4595,PAYLOAD,2023-12-04 04:14:56,15.08830647,0.0002177,53.2165,344.1992,82.4605,277.6634,0.0024823,0.0003943,0.0,0 STARLINK-4595,1 53627U 22104AR  23338.17704113  .00039430  00000-0  24823-2 0  9995,2 53627  53.2165 344.1992 0002177  82.4605 277.6634 15.08830647 70296,6917.909,95.438,541.28,538.268,0.0
53627.0,STARLINK-4595,PAYLOAD,2023-12-04 10:36:28,15.08864405,0.0002253,53.2166,343.0114,81.8735,278.2512,0.0010253,0.00016078,0.0,0 STARLINK-4595,1 53627U 22104AR  23338.44199482  .00016078  00000-0  10253-2 0  9997,2 53627  53.2166 343.0114 0002253  81.8735 278.2512 15.08864405 71026,6917.806,95.436,541.229,538.112,0.0
53627.0,STARLINK-4595,PAYLOAD,2023-12-05 04:05:42,15.08863893,0.000226,53.2162,339.7389,83.333,276.792,0.00035654,5.394e-05,0.0,0 STARLINK-4595,1 53627U 22104AR  23339.17062593  .00005394  00000-0  35654-3 0  9992,2 53627  53.2162 339.7389 0002260  83.3330 276.7920 15.08863893 70445,6917.807,95.436,541.236,538.109,0.0
53627.0,STARLINK-4595,PAYLOAD,2023-12-05 05:41:05,15.08862326,0.0002239,53.2165,339.4422,81.8379,278.2867,0.00039781,6.053e-05,0.0,0 STARLINK-4595,1 53627U 22104AR  23339.23686565  .00006053  00000-0  39781-3 0  9998,2 53627  53.2165 339.4422 0002239  81.8379 278.2867 15.08862326 71140,6917.812,95.436,541.226,538.128,0.0
53627.0,STARLINK-4595,PAYLOAD,2023-12-06 03:56:28,15.08849737,0.0002414,53.2167,335.2827,85.0743,275.0525,1.6267e-05,-2.9e-07,0.0,0 STARLINK-4595,1 53627U 22104AR  23340.16422146 -.00000029  00000-0  16267-4 0  9998,2 53627  53.2167 335.2827 0002414  85.0743 275.0525 15.08849737 70596,6917.851,95.437,541.386,538.046,0.0
53627.0,STARLINK-4595,PAYLOAD,2023-12-06 05:31:51,15.08846061,0.0002228,53.2166,334.9799,88.6614,271.4633,-9.7981e-05,-1.848e-05,0.0,0 STARLINK-4595,1 53627U 22104AR  23340.23046193 -.00001848  00000-0 -97981-4 0  9993,2 53627  53.2166 334.9799 0002228  88.6614 271.4633 15.08846061 71293,6917.862,95.437,541.268,538.186,0.0
53627.0,STARLINK-4595,PAYLOAD,2023-12-07 03:47:19,15.08777268,0.0002876,53.2176,330.8263,111.2532,248.8768,0.0015747,0.0002482,0.0,0 STARLINK-4595,1 53627U 22104AR  23341.15786022  .00024820  00000-0  15747-2 0  9998,2 53627  53.2176 330.8263 0002876 111.2532 248.8768 15.08777268 70744,6918.072,95.442,541.927,537.948,0.0
53627.0,STARLINK-4595,PAYLOAD,2023-12-07 08:33:23,15.08875942,0.0001974,53.2172,329.9261,94.8499,265.2718,0.00023923,3.525e-05,0.0,0 STARLINK-4595,1 53627U 22104AR  23341.35651953  .00003525  00000-0  23923-3 0  9999,2 53627  53.2172 329.9261 0001974  94.8499 265.2718 15.08875942 70772,6917.771,95.435,541.001,538.27,0.0
53627.0,STARLINK-4595,PAYLOAD,2023-12-08 03:38:01,15.08848827,0.0002015,53.2193,326.3642,113.4958,246.6246,0.00016648,2.363e-05,0.0,0 STARLINK-4595,1 53627U 22104AR  23342.15140682  .00002363  00000-0  16648-3 0  9995,2 53627  53.2193 326.3642 0002015 113.4958 246.6246 15.08848827 70898,6917.853,95.437,541.112,538.324,0.0
53627.0,STARLINK-4595,PAYLOAD,2023-12-08 08:24:12,15.08829162,0.000189,53.2185,325.4673,103.3745,256.7458,-2.5657e-05,-6.96e-06,0.0,0 STARLINK-4595,1 53627U 22104AR  23342.35014432 -.00000696  00000-0 -25657-4 0  9990,2 53627  53.2185 325.4673 0001890 103.3745 256.7458 15.08829162 70927,6917.914,95.438,541.086,538.471,0.0
53627.0,STARLINK-4595,PAYLOAD,2023-12-09 05:04:13,15.08830918,0.0001806,53.2186,321.5997,91.3038,268.8161,-2.9799e-05,-7.62e-06,0.0,0 STARLINK-4595,1 53627U 22104AR  23343.21126889 -.00000762  00000-0 -29799-4 0  9991,2 53627  53.2186 321.5997 0001806  91.3038 268.8161 15.08830918 71749,6917.908,95.438,541.023,538.524,0.0
53627.0,STARLINK-4595,PAYLOAD,2023-12-11 03:10:24,15.08838736,0.0001738,53.218,312.9769,88.4511,271.668,1.1454e-05,-1.06e-06,0.0,0 STARLINK-4595,1 53627U 22104AR  23345.13222438 -.00000106  00000-0  11454-4 0  9991,2 53627  53.2180 312.9769 0001738  88.4511 271.6680 15.08838736 71341,6917.884,95.438,540.952,538.547,0.0
53627.0,STARLINK-4595,PAYLOAD,2023-12-12 03:01:11,15.08834671,0.0001619,53.2178,308.5164,94.0283,266.0894,3.8414e-06,-2.27e-06,0.0,0 STARLINK-4595,1 53627U 22104AR  23346.12583088 -.00000227  00000-0  38414-5 0  9992,2 53627  53.2178 308.5164 0001619  94.0283 266.0894 15.08834671 71490,6917.897,95.438,540.882,538.642,0.0
53627.0,STARLINK-4595,PAYLOAD,2023-12-12 04:36:35,15.0883414,0.0001599,53.2178,308.2213,100.0603,260.057,4.1673e-05,3.75e-06,0.0,0 STARLINK-4595,1 53627U 22104AR  23346.19207199  .00000375  00000-0  41673-4 0  9998,2 53627  53.2178 308.2213 0001599 100.0603 260.0570 15.08834140 72197,6917.898,95.438,540.869,538.657,0.0
53627.0,STARLINK-4595,PAYLOAD,2023-12-13 04:27:22,15.08837743,0.000164,53.2182,303.7629,104.9209,255.1965,5.8409e-05,6.42e-06,0.0,0 STARLINK-4595,1 53627U 22104AR  23347.18567217  .00000642  00000-0  58409-4 0  9990,2 53627  53.2182 303.7629 0001640 104.9209 255.1965 15.08837743 71650,6917.887,95.438,540.887,538.618,0.0
53627.0,STARLINK-4595,PAYLOAD,2023-12-14 04:18:09,15.08837928,0.0001567,53.218,299.3004,91.0538,269.0633,5.9405e-05,6.58e-06,0.0,0 STARLINK-4595,1 53627U 22104AR  23348.17927501  .00000658  00000-0  59405-4 0  9990,2 53627  53.2180 299.3004 0001567  91.0538 269.0633 15.08837928 72498,6917.887,95.438,540.836,538.668,0.0
53627.0,STARLINK-4595,PAYLOAD,2023-12-15 02:33:32,15.08836862,0.0001672,53.2181,295.1371,78.0064,282.1116,0.00026845,3.987e-05,0.0,0 STARLINK-4595,1 53627U 22104AR  23349.10662851  .00003987  00000-0  26845-3 0  9997,2 53627  53.2181 295.1371 0001672  78.0064 282.1116 15.08836862 71943,6917.89,95.438,540.912,538.598,0.0
